[{"OBJECT_NAME":"STARLINK-31135","OBJECT_ID":"2024-011G","EPOCH":"2026-03-09T23:23:14.938080","MEAN_MOTION":15.30175302,"ECCENTRICITY":9.97e-5,"INCLINATION":53.1624,"RA_OF_ASC_NODE":10.2627,"ARG_OF_PERICENTER":88.6341,"MEAN_ANOMALY":271.4774,"EPHEMERIS_TYPE":0,"CLASSIFICATION_TYPE":"U","NORAD_CAT_ID":58771,"ELEMENT_SET_NO":999,"REV_AT_EPOCH":12034,"BSTAR":0.00011418661,"MEAN_MOTION_DOT":3.022e-5,"MEAN_MOTION_DDOT":0},{"OBJECT_NAME":"TRANSPORTER-1 OBJECT M","OBJECT_ID":"2021-006M","EPOCH":"2026-03-09T22:05:37.843296","MEAN_MOTION":15.3227845,"ECCENTRICITY":0.00102759,"INCLINATION":97.2377,"RA_OF_ASC_NODE":116.7915,"ARG_OF_PERICENTER":187.5492,"MEAN_ANOMALY":172.5597,"EPHEMERIS_TYPE":0,"CLASSIFICATION_TYPE":"U","NORAD_CAT_ID":47424,"ELEMENT_SET_NO":999,"REV_AT_EPOCH":28439,"BSTAR":0.00023985652,"MEAN_MOTION_DOT":7.411e-5,"MEAN_MOTION_DDOT":0}]
